[{"OBJECT_NAME":"PE2_FLT1 (TYVAK-0261)","OBJECT_ID":"2024-043H","EPOCH":"2026-03-09T22:11:30.005376","MEAN_MOTION":14.96611647,"ECCENTRICITY":0.00060821,"INCLINATION":97.8224,"RA_OF_ASC_NODE":199.4267,"ARG_OF_PERICENTER":22.6188,"MEAN_ANOMALY":337.53,"EPHEMERIS_TYPE":0,"CLASSIFICATION_TYPE":"U","NORAD_CAT_ID":59105,"ELEMENT_SET_NO":999,"REV_AT_EPOCH":10980,"BSTAR":0.00036312112,"MEAN_MOTION_DOT":4.08e-5,"MEAN_MOTION_DDOT":0},{"OBJECT_NAME":"STARLINK-35997","OBJECT_ID":"2025-280Y","EPOCH":"2026-03-09T22:21:26.676864","MEAN_MOTION":14.98330654,"ECCENTRICITY":0.00019646,"INCLINATION":70.0036,"RA_OF_ASC_NODE":333.7811,"ARG_OF_PERICENTER":266.2728,"MEAN_ANOMALY":93.8207,"EPHEMERIS_TYPE":0,"CLASSIFICATION_TYPE":"U","NORAD_CAT_ID":66843,"ELEMENT_SET_NO":999,"REV_AT_EPOCH":1611,"BSTAR":0.00074923265,"MEAN_MOTION_DOT":8.858e-5,"MEAN_MOTION_DDOT":0}]
